{
  "type": "FeatureCollection",
  "features": [
    {
      "type": "Feature",
      "properties": {
        "distance": 4265.6,
        "duration": 544.3
      },
      "geometry": {
        "coordinates": [
          [
            10.760105,
            52.438637
          ],
          [
            10.760164,
            52.438395
          ],
          [
            10.760219,
            52.438171
          ],
          [
            10.760426,
            52.438381
          ],
          [
            10.760546,
            52.438499
          ],
          [
            10.760701,
            52.43859
          ],
          [
            10.760893,
            52.43867
          ],
          [
            10.761132,
            52.438709
          ],
          [
            10.761493,
            52.43872
          ],
          [
            10.761845,
            52.4387
          ],
          [
            10.762931,
            52.438404
          ],
          [
            10.763516,
            52.438262
          ],
          [
            10.764131,
            52.438129
          ],
          [
            10.764683,
            52.438037
          ],
          [
            10.764641,
            52.437862
          ],
          [
            10.763636,
            52.43777
          ],
          [
            10.762958,
            52.437757
          ],
          [
            10.762806,
            52.437766
          ],
          [
            10.762582,
            52.437823
          ],
          [
            10.762381,
            52.437922
          ],
          [
            10.762251,
            52.438035
          ],
          [
            10.762172,
            52.438141
          ],
          [
            10.762037,
            52.438274
          ],
          [
            10.761974,
            52.438341
          ],
          [
            10.7619,
            52.438399
          ],
          [
            10.761783,
            52.438463
          ],
          [
            10.761629,
            52.438507
          ],
          [
            10.76144,
            52.438538
          ],
          [
            10.76128,
            52.438535
          ],
          [
            10.761113,
            52.438513
          ],
          [
            10.760955,
            52.438463
          ],
          [
            10.760839,
            52.438402
          ],
          [
            10.760722,
            52.438308
          ],
          [
            10.760658,
            52.438228
          ],
          [
            10.760615,
            52.438154
          ],
          [
            10.760601,
            52.438112
          ],
          [
            10.760588,
            52.438073
          ],
          [
            10.760568,
            52.437956
          ],
          [
            10.760565,
            52.43785
          ],
          [
            10.76083,
            52.436743
          ],
          [
            10.761082,
            52.435718
          ],
          [
            10.76113,
            52.43529
          ],
          [
            10.761159,
            52.434965
          ],
          [
            10.761198,
            52.434789
          ],
          [
            10.761152,
            52.434776
          ],
          [
            10.761115,
            52.434755
          ],
          [
            10.761089,
            52.434729
          ],
          [
            10.761077,
            52.434699
          ],
          [
            10.761082,
            52.434665
          ],
          [
            10.761105,
            52.434634
          ],
          [
            10.761143,
            52.434609
          ],
          [
            10.761193,
            52.434593
          ],
          [
            10.761248,
            52.434588
          ],
          [
            10.761246,
            52.434458
          ],
          [
            10.761495,
            52.433445
          ],
          [
            10.76154,
            52.433263
          ],
          [
            10.761581,
            52.433095
          ],
          [
            10.761755,
            52.432387
          ],
          [
            10.761804,
            52.43219
          ],
          [
            10.761846,
            52.432017
          ],
          [
            10.761974,
            52.431591
          ],
          [
            10.762225,
            52.430687
          ],
          [
            10.762445,
            52.429976
          ],
          [
            10.762461,
            52.42992
          ],
          [
            10.762693,
            52.429195
          ],
          [
            10.762704,
            52.42905
          ],
          [
            10.762709,
            52.428983
          ],
          [
            10.762714,
            52.42892
          ],
          [
            10.762756,
            52.428884
          ],
          [
            10.762805,
            52.428826
          ],
          [
            10.762818,
            52.428786
          ],
          [
            10.762832,
            52.428731
          ],
          [
            10.762856,
            52.428648
          ],
          [
            10.762859,
            52.42856
          ],
          [
            10.762816,
            52.428496
          ],
          [
            10.76273,
            52.428434
          ],
          [
            10.762857,
            52.428368
          ],
          [
            10.762963,
            52.428291
          ],
          [
            10.762981,
            52.428241
          ],
          [
            10.763004,
            52.428179
          ],
          [
            10.763024,
            52.428096
          ],
          [
            10.763145,
            52.427684
          ],
          [
            10.763221,
            52.427392
          ],
          [
            10.763236,
            52.427336
          ],
          [
            10.763271,
            52.427222
          ],
          [
            10.763302,
            52.427148
          ],
          [
            10.763351,
            52.427062
          ],
          [
            10.763423,
            52.426986
          ],
          [
            10.76351,
            52.42692
          ],
          [
            10.763564,
            52.42688
          ],
          [
            10.76373,
            52.426793
          ],
          [
            10.763948,
            52.426725
          ],
          [
            10.764144,
            52.426691
          ],
          [
            10.764429,
            52.426671
          ],
          [
            10.764648,
            52.426672
          ],
          [
            10.764927,
            52.426691
          ],
          [
            10.765223,
            52.426729
          ],
          [
            10.765526,
            52.426774
          ],
          [
            10.765869,
            52.426827
          ],
          [
            10.766799,
            52.427015
          ],
          [
            10.767268,
            52.427129
          ],
          [
            10.767541,
            52.427187
          ],
          [
            10.767743,
            52.427199
          ],
          [
            10.767878,
            52.427192
          ],
          [
            10.768038,
            52.427171
          ],
          [
            10.768207,
            52.427127
          ],
          [
            10.768326,
            52.427084
          ],
          [
            10.768492,
            52.426938
          ],
          [
            10.768536,
            52.426897
          ],
          [
            10.768689,
            52.426724
          ],
          [
            10.768776,
            52.426624
          ],
          [
            10.768893,
            52.426639
          ],
          [
            10.769316,
            52.426699
          ],
          [
            10.769421,
            52.426714
          ],
          [
            10.769963,
            52.42681
          ],
          [
            10.770269,
            52.426873
          ],
          [
            10.7708,
            52.426992
          ],
          [
            10.77102,
            52.42705
          ],
          [
            10.771624,
            52.427212
          ],
          [
            10.772196,
            52.427366
          ],
          [
            10.772319,
            52.427399
          ],
          [
            10.773362,
            52.427681
          ],
          [
            10.773693,
            52.427767
          ],
          [
            10.773953,
            52.427826
          ],
          [
            10.774414,
            52.427913
          ],
          [
            10.774521,
            52.427933
          ],
          [
            10.775018,
            52.428006
          ],
          [
            10.775685,
            52.42807
          ],
          [
            10.775782,
            52.428077
          ],
          [
            10.776095,
            52.428097
          ],
          [
            10.776206,
            52.428103
          ],
          [
            10.776503,
            52.428106
          ],
          [
            10.776721,
            52.428109
          ],
          [
            10.777772,
            52.428086
          ],
          [
            10.777865,
            52.428084
          ],
          [
            10.777932,
            52.428083
          ],
          [
            10.77857,
            52.428067
          ],
          [
            10.779612,
            52.428042
          ],
          [
            10.781614,
            52.427991
          ],
          [
            10.781837,
            52.427985
          ],
          [
            10.782742,
            52.427961
          ],
          [
            10.783043,
            52.427953
          ],
          [
            10.783099,
            52.427952
          ],
          [
            10.783629,
            52.427939
          ],
          [
            10.783966,
            52.427932
          ],
          [
            10.784419,
            52.427918
          ],
          [
            10.785068,
            52.427906
          ],
          [
            10.785729,
            52.427908
          ],
          [
            10.786007,
            52.427861
          ],
          [
            10.786501,
            52.42781
          ],
          [
            10.786642,
            52.427794
          ],
          [
            10.786728,
            52.427792
          ],
          [
            10.787098,
            52.427786
          ],
          [
            10.78747,
            52.427779
          ],
          [
            10.787494,
            52.427778
          ],
          [
            10.787605,
            52.427777
          ],
          [
            10.787769,
            52.427775
          ],
          [
            10.787841,
            52.427778
          ],
          [
            10.787896,
            52.427797
          ],
          [
            10.787942,
            52.427833
          ],
          [
            10.788059,
            52.427882
          ],
          [
            10.788167,
            52.427916
          ],
          [
            10.788294,
            52.427939
          ],
          [
            10.788635,
            52.427938
          ],
          [
            10.789003,
            52.427931
          ],
          [
            10.789284,
            52.427924
          ],
          [
            10.789292,
            52.427924
          ],
          [
            10.789553,
            52.427918
          ],
          [
            10.790159,
            52.427889
          ],
          [
            10.790238,
            52.427888
          ],
          [
            10.790417,
            52.427885
          ],
          [
            10.790469,
            52.427927
          ],
          [
            10.790662,
            52.428102
          ],
          [
            10.790767,
            52.428193
          ],
          [
            10.790808,
            52.428227
          ],
          [
            10.790897,
            52.42832
          ],
          [
            10.791342,
            52.428878
          ],
          [
            10.791619,
            52.429166
          ],
          [
            10.791711,
            52.42924
          ],
          [
            10.791837,
            52.429298
          ],
          [
            10.79197,
            52.429343
          ],
          [
            10.792133,
            52.429372
          ],
          [
            10.792348,
            52.429393
          ],
          [
            10.79269,
            52.429413
          ],
          [
            10.793605,
            52.429468
          ]
        ],
        "type": "LineString"
      }
    }
  ]
}
